CCSDS_OMM_VERS = 2.0
CREATION_DATE  = 
ORIGINATOR     = 

OBJECT_NAME    = SL-3 R/B
OBJECT_ID      = 1982-079B
CENTER_NAME    = EARTH
REF_FRAME      = TEME
TIME_SYSTEM    = UTC
MEAN_ELEMENT_THEORY = SGP/SGP4

EPOCH          = 2025-12-02T02:33:26.453952
MEAN_MOTION    = 15.23396237
ECCENTRICITY   = .0026618
INCLINATION    = 81.1457
RA_OF_ASC_NODE = 308.1941
ARG_OF_PERICENTER = 133.2138
MEAN_ANOMALY   = 227.1324

EPHEMERIS_TYPE = 0
CLASSIFICATION_TYPE = U
NORAD_CAT_ID   = 13403
ELEMENT_SET_NO = 999
REV_AT_EPOCH   = 36283
BSTAR          = .26477E-3
MEAN_MOTION_DOT = .6387E-4
MEAN_MOTION_DDOT = 0

CCSDS_OMM_VERS = 2.0
CREATION_DATE  = 
ORIGINATOR     = 

OBJECT_NAME    = SL-14 R/B
OBJECT_ID      = 1982-092B
CENTER_NAME    = EARTH
REF_FRAME      = TEME
TIME_SYSTEM    = UTC
MEAN_ELEMENT_THEORY = SGP/SGP4

EPOCH          = 2025-12-02T04:44:00.506112
MEAN_MOTION    = 14.86537642
ECCENTRICITY   = .0018823
INCLINATION    = 82.5688
RA_OF_ASC_NODE = 232.5704
ARG_OF_PERICENTER = 264.6769
MEAN_ANOMALY   = 249.0606

EPHEMERIS_TYPE = 0
CLASSIFICATION_TYPE = U
NORAD_CAT_ID   = 13553
ELEMENT_SET_NO = 999
REV_AT_EPOCH   = 31444
BSTAR          = .68842E-4
MEAN_MOTION_DOT = .635E-5
MEAN_MOTION_DDOT = 0

CCSDS_OMM_VERS = 2.0
CREATION_DATE  = 
ORIGINATOR     = 

OBJECT_NAME    = SL-3 R/B
OBJECT_ID      = 1983-010B
CENTER_NAME    = EARTH
REF_FRAME      = TEME
TIME_SYSTEM    = UTC
MEAN_ELEMENT_THEORY = SGP/SGP4

EPOCH          = 2025-12-01T21:05:48.420096
MEAN_MOTION    = 15.43014976
ECCENTRICITY   = .0017675
INCLINATION    = 81.1024
RA_OF_ASC_NODE = 121.8707
ARG_OF_PERICENTER = 28.7683
MEAN_ANOMALY   = 331.4531

EPHEMERIS_TYPE = 0
CLASSIFICATION_TYPE = U
NORAD_CAT_ID   = 13819
ELEMENT_SET_NO = 999
REV_AT_EPOCH   = 34284
BSTAR          = .35116E-3
MEAN_MOTION_DOT = .15609E-3
MEAN_MOTION_DDOT = 0

CCSDS_OMM_VERS = 2.0
CREATION_DATE  = 
ORIGINATOR     = 

OBJECT_NAME    = SL-3 R/B
OBJECT_ID      = 1983-075B
CENTER_NAME    = EARTH
REF_FRAME      = TEME
TIME_SYSTEM    = UTC
MEAN_ELEMENT_THEORY = SGP/SGP4

EPOCH          = 2025-12-02T02:28:27.210144
MEAN_MOTION    = 15.35804017
ECCENTRICITY   = .0021587
INCLINATION    = 97.6099
RA_OF_ASC_NODE = 332.2327
ARG_OF_PERICENTER = 214.5259
MEAN_ANOMALY   = 145.4583

EPHEMERIS_TYPE = 0
CLASSIFICATION_TYPE = U
NORAD_CAT_ID   = 14208
ELEMENT_SET_NO = 999
REV_AT_EPOCH   = 31516
BSTAR          = .33543E-3
MEAN_MOTION_DOT = .11691E-3
MEAN_MOTION_DDOT = 0

CCSDS_OMM_VERS = 2.0
CREATION_DATE  = 
ORIGINATOR     = 

OBJECT_NAME    = COSMOS 1536
OBJECT_ID      = 1984-013A
CENTER_NAME    = EARTH
REF_FRAME      = TEME
TIME_SYSTEM    = UTC
MEAN_ELEMENT_THEORY = SGP/SGP4

EPOCH          = 2025-12-02T02:13:46.495200
MEAN_MOTION    = 15.22339327
ECCENTRICITY   = .0013247
INCLINATION    = 82.5468
RA_OF_ASC_NODE = 204.7208
ARG_OF_PERICENTER = 267.4942
MEAN_ANOMALY   = 92.4778

EPHEMERIS_TYPE = 0
CLASSIFICATION_TYPE = U
NORAD_CAT_ID   = 14699
ELEMENT_SET_NO = 999
REV_AT_EPOCH   = 25776
BSTAR          = .26768E-3
MEAN_MOTION_DOT = .6217E-4
MEAN_MOTION_DDOT = 0

CCSDS_OMM_VERS = 2.0
CREATION_DATE  = 
ORIGINATOR     = 

OBJECT_NAME    = SL-14 R/B
OBJECT_ID      = 1984-027B
CENTER_NAME    = EARTH
REF_FRAME      = TEME
TIME_SYSTEM    = UTC
MEAN_ELEMENT_THEORY = SGP/SGP4

EPOCH          = 2025-12-02T02:49:06.100608
MEAN_MOTION    = 14.85855578
ECCENTRICITY   = .0016584
INCLINATION    = 82.5409
RA_OF_ASC_NODE = 336.5189
ARG_OF_PERICENTER = 299.3180
MEAN_ANOMALY   = 60.6379

EPHEMERIS_TYPE = 0
CLASSIFICATION_TYPE = U
NORAD_CAT_ID   = 14820
ELEMENT_SET_NO = 999
REV_AT_EPOCH   = 23314
BSTAR          = .73878E-4
MEAN_MOTION_DOT = .668E-5
MEAN_MOTION_DDOT = 0

CCSDS_OMM_VERS = 2.0
CREATION_DATE  = 
ORIGINATOR     = 

OBJECT_NAME    = SL-8 R/B
OBJECT_ID      = 1985-006B
CENTER_NAME    = EARTH
REF_FRAME      = TEME
TIME_SYSTEM    = UTC
MEAN_ELEMENT_THEORY = SGP/SGP4

EPOCH          = 2025-12-01T16:42:32.668416
MEAN_MOTION    = 14.37710153
ECCENTRICITY   = .0018204
INCLINATION    = 74.0462
RA_OF_ASC_NODE = 81.4521
ARG_OF_PERICENTER = 16.6851
MEAN_ANOMALY   = 88.5447

EPHEMERIS_TYPE = 0
CLASSIFICATION_TYPE = U
NORAD_CAT_ID   = 15483
ELEMENT_SET_NO = 999
REV_AT_EPOCH   = 13994
BSTAR          = .11166E-3
MEAN_MOTION_DOT = .31E-5
MEAN_MOTION_DDOT = 0

CCSDS_OMM_VERS = 2.0
CREATION_DATE  = 
ORIGINATOR     = 

OBJECT_NAME    = SL-12 R/B(2)
OBJECT_ID      = 1985-042D
CENTER_NAME    = EARTH
REF_FRAME      = TEME
TIME_SYSTEM    = UTC
MEAN_ELEMENT_THEORY = SGP/SGP4

EPOCH          = 2025-12-02T04:48:04.759776
MEAN_MOTION    = 14.21946311
ECCENTRICITY   = .0037675
INCLINATION    = 71.1080
RA_OF_ASC_NODE = 293.6859
ARG_OF_PERICENTER = 276.8897
MEAN_ANOMALY   = 176.1575

EPHEMERIS_TYPE = 0
CLASSIFICATION_TYPE = U
NORAD_CAT_ID   = 15772
ELEMENT_SET_NO = 999
REV_AT_EPOCH   = 10053
BSTAR          = .6042E-4
MEAN_MOTION_DOT = .86E-6
MEAN_MOTION_DDOT = 0

CCSDS_OMM_VERS = 2.0
CREATION_DATE  = 
ORIGINATOR     = 

OBJECT_NAME    = SL-14 R/B
OBJECT_ID      = 1985-069B
CENTER_NAME    = EARTH
REF_FRAME      = TEME
TIME_SYSTEM    = UTC
MEAN_ELEMENT_THEORY = SGP/SGP4

EPOCH          = 2025-12-01T20:42:07.242048
MEAN_MOTION    = 14.86302325
ECCENTRICITY   = .0019455
INCLINATION    = 82.5254
RA_OF_ASC_NODE = 116.9282
ARG_OF_PERICENTER = 152.6781
MEAN_ANOMALY   = 207.5463

EPHEMERIS_TYPE = 0
CLASSIFICATION_TYPE = U
NORAD_CAT_ID   = 15945
ELEMENT_SET_NO = 999
REV_AT_EPOCH   = 15830
BSTAR          = .82944E-4
MEAN_MOTION_DOT = .757E-5
MEAN_MOTION_DDOT = 0

CCSDS_OMM_VERS = 2.0
CREATION_DATE  = 
ORIGINATOR     = 

OBJECT_NAME    = SL-16 R/B
OBJECT_ID      = 1985-097B
CENTER_NAME    = EARTH
REF_FRAME      = TEME
TIME_SYSTEM    = UTC
MEAN_ELEMENT_THEORY = SGP/SGP4

EPOCH          = 2025-12-02T04:32:28.659840
MEAN_MOTION    = 14.16581930
ECCENTRICITY   = .000604
INCLINATION    = 71.0034
RA_OF_ASC_NODE = 345.8159
ARG_OF_PERICENTER = 27.7306
MEAN_ANOMALY   = 42.2979

EPHEMERIS_TYPE = 0
CLASSIFICATION_TYPE = U
NORAD_CAT_ID   = 16182
ELEMENT_SET_NO = 999
REV_AT_EPOCH   = 7342
BSTAR          = -.69934E-4
MEAN_MOTION_DOT = -.187E-5
MEAN_MOTION_DDOT = 0

CCSDS_OMM_VERS = 2.0
CREATION_DATE  = 
ORIGINATOR     = 

OBJECT_NAME    = SL-14 R/B
OBJECT_ID      = 1986-006B
CENTER_NAME    = EARTH
REF_FRAME      = TEME
TIME_SYSTEM    = UTC
MEAN_ELEMENT_THEORY = SGP/SGP4

EPOCH          = 2025-12-02T03:11:08.157120
MEAN_MOTION    = 14.86648296
ECCENTRICITY   = .0075444
INCLINATION    = 82.5268
RA_OF_ASC_NODE = 351.5325
ARG_OF_PERICENTER = 235.4378
MEAN_ANOMALY   = 123.9705

EPHEMERIS_TYPE = 0
CLASSIFICATION_TYPE = U
NORAD_CAT_ID   = 16496
ELEMENT_SET_NO = 999
REV_AT_EPOCH   = 13471
BSTAR          = .91074E-4
MEAN_MOTION_DOT = .877E-5
MEAN_MOTION_DDOT = 0

CCSDS_OMM_VERS = 2.0
CREATION_DATE  = 
ORIGINATOR     = 

OBJECT_NAME    = COSMOS 1743
OBJECT_ID      = 1986-034A
CENTER_NAME    = EARTH
REF_FRAME      = TEME
TIME_SYSTEM    = UTC
MEAN_ELEMENT_THEORY = SGP/SGP4

EPOCH          = 2025-12-02T00:20:22.377696
MEAN_MOTION    = 15.51318677
ECCENTRICITY   = .0005005
INCLINATION    = 82.5349
RA_OF_ASC_NODE = 175.7250
ARG_OF_PERICENTER = 301.2256
MEAN_ANOMALY   = 58.8505

EPHEMERIS_TYPE = 0
CLASSIFICATION_TYPE = U
NORAD_CAT_ID   = 16719
ELEMENT_SET_NO = 999
REV_AT_EPOCH   = 16507
BSTAR          = .45576E-3
MEAN_MOTION_DOT = .26849E-3
MEAN_MOTION_DDOT = 0

