SL-3 R/B                
1 13403U 82079B   25336.10655618  .00006387  00000+0  26477-3 0  9990
2 13403  81.1457 308.1941 0026618 133.2138 227.1324 15.23396237362833
SL-14 R/B               
1 13553U 82092B   25336.19722808  .00000635  00000+0  68842-4 0  9999
2 13553  82.5688 232.5704 0018823 264.6769 249.0606 14.86537642314440
SL-3 R/B                
1 13819U 83010B   25335.87903264  .00015609  00000+0  35116-3 0  9990
2 13819  81.1024 121.8707 0017675  28.7683 331.4531 15.43014976342847
SL-3 R/B                
1 14208U 83075B   25336.10309271  .00011691  00000+0  33543-3 0  9998
2 14208  97.6099 332.2327 0021587 214.5259 145.4583 15.35804017315160
COSMOS 1536             
1 14699U 84013A   25336.09289925  .00006217  00000+0  26768-3 0  9995
2 14699  82.5468 204.7208 0013247 267.4942  92.4778 15.22339327257769
SL-14 R/B               
1 14820U 84027B   25336.11743172  .00000668  00000+0  73878-4 0  9997
2 14820  82.5409 336.5189 0016584 299.3180  60.6379 14.85855578233146
SL-8 R/B                
1 15483U 85006B   25335.69621144  .00000310  00000+0  11166-3 0  9992
2 15483  74.0462  81.4521 0018204  16.6851  88.5447 14.37710153139943
SL-12 R/B(2)            
1 15772U 85042D   25336.20005509  .00000086  00000+0  60420-4 0  9990
2 15772  71.1080 293.6859 0037675 276.8897 176.1575 14.21946311100531
SL-14 R/B               
1 15945U 85069B   25335.86258382  .00000757  00000+0  82944-4 0  9991
2 15945  82.5254 116.9282 0019455 152.6781 207.5463 14.86302325158303
SL-16 R/B               
1 16182U 85097B   25336.18922060 -.00000187  00000+0 -69934-4 0  9996
2 16182  71.0034 345.8159 0006040  27.7306  42.2979 14.16581930 73422
SL-14 R/B               
1 16496U 86006B   25336.13273330  .00000877  00000+0  91074-4 0  9993
2 16496  82.5268 351.5325 0075444 235.4378 123.9705 14.86648296134716
COSMOS 1743             
1 16719U 86034A   25336.01414789  .00026849  00000+0  45576-3 0  9996
2 16719  82.5349 175.7250 0005005 301.2256  58.8505 15.51318677165077
